IONOSFERA-M 04
1 64877U 25155B   25360.19273426  .00000085  00000-0  58514-4 0  9990
2 64877  98.5802 321.5986 0001250  51.0399 309.0890 14.21445370 21828
INNOSAT16 (RS92S7)
1 64878U 25155C   25359.95916320  .00004487  00000-0  19419-3 0  9990
2 64878  97.4355 323.1921 0013050  77.3071 282.9623 15.22868647 54283
GEOSCAN-6 (RS92S6)
1 64879U 25155D   25359.92402434  .00012277  00000-0  48191-3 0  9999
2 64879  97.4357 323.5624 0010653  73.8931 286.3479 15.25812794 54307
GEOSCAN 1 (RS92S1)
1 64880U 25155E   25359.91139157  .00012831  00000-0  49917-3 0  9992
2 64880  97.4358 323.5851 0010617  74.3437 285.8972 15.26100888 54306
239ALFEROV (RS61S)
1 64881U 25155F   25359.93063804  .00015894  00000-0  60031-3 0  9992
2 64881  97.4367 323.7339 0010447  74.4739 285.7652 15.27035674 54313
ASTROLINE-N1
1 64882U 25155G   25359.92231535  .00011498  00000-0  45405-3 0  9994
2 64882  97.4378 323.5913 0010021  74.4040 285.8303 15.25636982 54305
ASTROLINE-N2
1 64883U 25155H   25359.92244371  .00011009  00000-0  43492-3 0  9999
2 64883  97.4374 323.5827 0009921  73.3502 286.8825 15.25633846 54300
ASTROLINE-N3
1 64884U 25155J   25360.11890435  .00011348  00000-0  44726-3 0  9998
2 64884  97.4365 323.7858 0010675  69.4145 290.8237 15.25697687 54332
ASTROLINE-N4
1 64885U 25155K   25360.11760992  .00027301  00000-0  94233-3 0  9997
2 64885  97.4321 324.1558 0010249  65.0498 295.1807 15.29883824 54365
CSTP-4.3
1 64886U 25155L   25360.10973880  .00026311  00000-0  89627-3 0  9990
2 64886  97.4311 324.1574 0010825  68.7496 291.4900 15.30313665 54367
CSTP-4.2
1 64887U 25155M   25360.16046204  .00021633  00000-0  76674-3 0  9998
2 64887  97.4333 324.1309 0010441  65.9291 294.3040 15.29064418 54368
CSTP-4.1
1 64888U 25155N   25360.17113662  .00026571  00000-0  90503-3 0  9996
2 64888  97.4317 324.2432 0010369  64.8068 295.4246 15.30320296 54370
CSTP-4.4
1 64889U 25155P   25360.17060416  .00006256  00000-0  25843-3 0  9998
2 64889  97.4384 323.7264 0009474  71.2315 288.9950 15.24324508 54332
GEOSCAN 2 (RS92S2)
1 64890U 25155Q   25360.13540116  .00012383  00000-0  47731-3 0  9994
2 64890  97.4356 323.8850 0009716  63.6618 296.5617 15.26427383 54348
GEOSCAN-5 (RS92S5)
1 64891U 25155R   25360.15400247  .00015154  00000-0  56655-3 0  9991
2 64891  97.4359 324.0233 0009256  79.1022 281.1258 15.27395929 54353
GEOSCAN-4 (RS92S4)
1 64892U 25155S   25360.15047612  .00015100  00000-0  56332-3 0  9998
2 64892  97.4361 324.0319 0009282  79.6907 280.5378 15.27467864 54352
GEOSCAN-3 (RS92S3)
1 64893U 25155T   25360.11360586  .00018742  00000-0  68142-3 0  9990
2 64893  97.4357 324.0744 0009133  81.7712 278.4563 15.28270099 54358
INNOSAT3 (RS92S0)
1 64894U 25155U   25360.13412951  .00030328  00000-0  10109-2 0  9990
2 64894  97.4340 324.3380 0009109  83.1766 277.0511 15.31006306 54370
NAHID-2
1 64895U 25155V   25360.11901631  .00011191  00000-0  44192-3 0  9994
2 64895  97.4375 323.7789 0009849  73.2925 286.9393 15.25646081 54328
RSP-03
1 65732U 98067XL  25360.10323745  .00141034  00000-0  10365-2 0  9994
2 65732  51.6259  68.2655 0006061 336.3892  23.6827 15.72119608 15264
YOTSUBA-KULOVER
1 65941U 98067XN  25359.33013754  .00069861  00000-0  81019-3 0  9997
2 65941  51.6289  76.6197 0002496 359.0100   1.0889 15.61141246 11822
BOTAN
1 65942U 98067XP  25359.49586471  .00114850  00000-0  11099-2 0  9995
2 65942  51.6278  74.7240 0003445 339.5705  20.5152 15.65573117 11861
E-KAGAKU-1
1 65943U 98067XQ  25359.45825213  .00070327  00000-0  81460-3 0  9992
2 65943  51.6310  75.9814 0001457 327.9549  32.1355 15.61171734 11844
SCORPION (RS89S)
1 90000U          25362.61156250  .00024073  00000-0  10740-2 0 00002 
2 90000 097.4092 075.0791 0010388 225.2461 138.1944 15.21242219000103
GALAPAGOS-UTE-SWSU
1 90001U          25362.61156250  .00024073  00000-0  10740-2 0 00002 
2 90001 097.4092 075.0791 0010388 225.2461 138.1944 15.21242219000104
